{
  "type": "FeatureCollection",
  "features": [
    {
      "type": "Feature",
      "properties": {
        "norad_id": 34468,
        "name": "COSMOS 2251 DEB",
        "group": "cosmos-2251-debris",
        "lat": -56.436669309487755,
        "lon": 66.1771092634607,
        "alt_km": 717.6327869265069,
        "timestamp": "2025-12-26T07:29:18.848883+00:00",
        "meta_object_name": "COSMOS 2251 DEB",
        "meta_object_id": "1993-036TM",
        "meta_epoch": "2025-12-25T15:10:50.890080",
        "meta_mean_motion": 14.47658877,
        "meta_eccentricity": 0.0076244,
        "meta_inclination": 74.0132,
        "meta_ra_of_asc_node": 93.0501,
        "meta_arg_of_pericenter": 235.381,
        "meta_mean_anomaly": 124.0144,
        "meta_ephemeris_type": 0,
        "meta_classification_type": "U",
        "meta_norad_cat_id": 34468,
        "meta_element_set_no": 999,
        "meta_rev_at_epoch": 88648,
        "meta_bstar": 0.00037337,
        "meta_mean_motion_dot": 1.398e-05,
        "meta_mean_motion_ddot": 0,
        "tle_line1": "1 34468U 93036TM  25359.63253345  .00001398  00000+0  37337-3 0  9997",
        "tle_line2": "2 34468  74.0132  93.0501 0076244 235.3810 124.0144 14.47658877886484"
      },
      "geometry": {
        "type": "Point",
        "coordinates": [
          66.1771092634607,
          -56.436669309487755
        ]
      }
    },
    {
      "type": "Feature",
      "properties": {
        "norad_id": 34472,
        "name": "COSMOS 2251 DEB",
        "group": "cosmos-2251-debris",
        "lat": 32.16741480312499,
        "lon": -114.51408434494515,
        "alt_km": 860.8113731756339,
        "timestamp": "2025-12-26T07:29:18.848893+00:00",
        "meta_object_name": "COSMOS 2251 DEB",
        "meta_object_id": "1993-036TR",
        "meta_epoch": "2025-12-25T14:59:08.401056",
        "meta_mean_motion": 13.7035431,
        "meta_eccentricity": 0.032767,
        "meta_inclination": 74.0846,
        "meta_ra_of_asc_node": 76.9541,
        "meta_arg_of_pericenter": 205.149,
        "meta_mean_anomaly": 153.3364,
        "meta_ephemeris_type": 0,
        "meta_classification_type": "U",
        "meta_norad_cat_id": 34472,
        "meta_element_set_no": 999,
        "meta_rev_at_epoch": 83903,
        "meta_bstar": 0.00075081,
        "meta_mean_motion_dot": 9.47e-06,
        "meta_mean_motion_ddot": 0,
        "tle_line1": "1 34472U 93036TR  25359.62440279  .00000947  00000+0  75081-3 0  9992",
        "tle_line2": "2 34472  74.0846  76.9541 0327670 205.1490 153.3364 13.70354310839034"
      },
      "geometry": {
        "type": "Point",
        "coordinates": [
          -114.51408434494515,
          32.16741480312499
        ]
      }
    },
    {
      "type": "Feature",
      "properties": {
        "norad_id": 34474,
        "name": "COSMOS 2251 DEB",
        "group": "cosmos-2251-debris",
        "lat": -60.753817792689546,
        "lon": 153.1317437740886,
        "alt_km": 965.3100853807382,
        "timestamp": "2025-12-26T07:29:18.848903+00:00",
        "meta_object_name": "COSMOS 2251 DEB",
        "meta_object_id": "1993-036TT",
        "meta_epoch": "2025-12-25T13:46:35.156064",
        "meta_mean_motion": 14.06520553,
        "meta_eccentricity": 0.0199435,
        "meta_inclination": 74.0788,
        "meta_ra_of_asc_node": 303.7716,
        "meta_arg_of_pericenter": 14.5728,
        "meta_mean_anomaly": 96.9226,
        "meta_ephemeris_type": 0,
        "meta_classification_type": "U",
        "meta_norad_cat_id": 34474,
        "meta_element_set_no": 999,
        "meta_rev_at_epoch": 85689,
        "meta_bstar": 0.0025497,
        "meta_mean_motion_dot": 5.032e-05,
        "meta_mean_motion_ddot": 0,
        "tle_line1": "1 34474U 93036TT  25359.57401801  .00005032  00000+0  25497-2 0  9991",
        "tle_line2": "2 34474  74.0788 303.7716 0199435  14.5728  96.9226 14.06520553856894"
      },
      "geometry": {
        "type": "Point",
        "coordinates": [
          153.1317437740886,
          -60.753817792689546
        ]
      }
    },
    {
      "type": "Feature",
      "properties": {
        "norad_id": 34476,
        "name": "COSMOS 2251 DEB",
        "group": "cosmos-2251-debris",
        "lat": 65.84795118618803,
        "lon": -160.13432364654827,
        "alt_km": 1180.2786851581568,
        "timestamp": "2025-12-26T07:29:18.848913+00:00",
        "meta_object_name": "COSMOS 2251 DEB",
        "meta_object_id": "1993-036TV",
        "meta_epoch": "2025-12-23T04:15:02.567520",
        "meta_mean_motion": 13.82132648,
        "meta_eccentricity": 0.03222242,
        "meta_inclination": 74.0063,
        "meta_ra_of_asc_node": 64.9101,
        "meta_arg_of_pericenter": 282.3311,
        "meta_mean_anomaly": 74.192,
        "meta_ephemeris_type": 0,
        "meta_classification_type": "U",
        "meta_norad_cat_id": 34476,
        "meta_element_set_no": 999,
        "meta_rev_at_epoch": 83782,
        "meta_bstar": 0.0037798313,
        "meta_mean_motion_dot": 6.03e-05,
        "meta_mean_motion_ddot": 0,
        "tle_line1": "1 34476U 93036TV  25357.17711305  .00006030  00000+0  37798-2 0  9996",
        "tle_line2": "2 34476  74.0063  64.9101 0322224 282.3311  74.1920 13.82132648837821"
      },
      "geometry": {
        "type": "Point",
        "coordinates": [
          -160.13432364654827,
          65.84795118618803
        ]
      }
    },
    {
      "type": "Feature",
      "properties": {
        "norad_id": 34477,
        "name": "COSMOS 2251 DEB",
        "group": "cosmos-2251-debris",
        "lat": 52.29932435931238,
        "lon": 65.46100044699845,
        "alt_km": 751.6276809547544,
        "timestamp": "2025-12-26T07:29:18.848926+00:00",
        "meta_object_name": "COSMOS 2251 DEB",
        "meta_object_id": "1993-036TW",
        "meta_epoch": "2025-12-25T21:35:41.322048",
        "meta_mean_motion": 14.5695296,
        "meta_eccentricity": 0.00766366,
        "meta_inclination": 73.9785,
        "meta_ra_of_asc_node": 44.4217,
        "meta_arg_of_pericenter": 229.1236,
        "meta_mean_anomaly": 185.1274,
        "meta_ephemeris_type": 0,
        "meta_classification_type": "U",
        "meta_norad_cat_id": 34477,
        "meta_element_set_no": 999,
        "meta_rev_at_epoch": 88817,
        "meta_bstar": 0.0007455762,
        "meta_mean_motion_dot": 3.455e-05,
        "meta_mean_motion_ddot": 0,
        "tle_line1": "1 34477U 93036TW  25359.89978382  .00003455  00000+0  74558-3 0  9992",
        "tle_line2": "2 34477  73.9785  44.4217 0076636 229.1236 185.1274 14.56952960888178"
      },
      "geometry": {
        "type": "Point",
        "coordinates": [
          65.46100044699845,
          52.29932435931238
        ]
      }
    },
    {
      "type": "Feature",
      "properties": {
        "norad_id": 34478,
        "name": "COSMOS 2251 DEB",
        "group": "cosmos-2251-debris",
        "lat": -60.482636905075644,
        "lon": -51.42383791387123,
        "alt_km": 549.4652104821889,
        "timestamp": "2025-12-26T07:29:18.848936+00:00",
        "meta_object_name": "COSMOS 2251 DEB",
        "meta_object_id": "1993-036TX",
        "meta_epoch": "2025-12-25T08:28:11.913024",
        "meta_mean_motion": 15.09100572,
        "meta_eccentricity": 0.003363,
        "meta_inclination": 74.0404,
        "meta_ra_of_asc_node": 340.914,
        "meta_arg_of_pericenter": 197.3205,
        "meta_mean_anomaly": 288.9824,
        "meta_ephemeris_type": 0,
        "meta_classification_type": "U",
        "meta_norad_cat_id": 34478,
        "meta_element_set_no": 999,
        "meta_rev_at_epoch": 89163,
        "meta_bstar": 0.0030996,
        "meta_mean_motion_dot": 0.00050106,
        "meta_mean_motion_ddot": 0,
        "tle_line1": "1 34478U 93036TX  25359.35291566  .00050106  00000+0  30996-2 0  9998",
        "tle_line2": "2 34478  74.0404 340.9140 0033630 197.3205 288.9824 15.09100572891638"
      },
      "geometry": {
        "type": "Point",
        "coordinates": [
          -51.42383791387123,
          -60.482636905075644
        ]
      }
    },
    {
      "type": "Feature",
      "properties": {
        "norad_id": 34481,
        "name": "COSMOS 2251 DEB",
        "group": "cosmos-2251-debris",
        "lat": 37.94740541660578,
        "lon": -164.35713061841787,
        "alt_km": 754.6601024981055,
        "timestamp": "2025-12-26T07:29:18.848947+00:00",
        "meta_object_name": "COSMOS 2251 DEB",
        "meta_object_id": "1993-036UA",
        "meta_epoch": "2025-12-25T13:06:57.408192",
        "meta_mean_motion": 14.32595231,
        "meta_eccentricity": 0.0070203,
        "meta_inclination": 73.9789,
        "meta_ra_of_asc_node": 29.9926,
        "meta_arg_of_pericenter": 201.9273,
        "meta_mean_anomaly": 312.4007,
        "meta_ephemeris_type": 0,
        "meta_classification_type": "U",
        "meta_norad_cat_id": 34481,
        "meta_element_set_no": 999,
        "meta_rev_at_epoch": 87632,
        "meta_bstar": 0.00062076,
        "meta_mean_motion_dot": 1.706e-05,
        "meta_mean_motion_ddot": 0,
        "tle_line1": "1 34481U 93036UA  25359.54649778  .00001706  00000+0  62076-3 0  9992",
        "tle_line2": "2 34481  73.9789  29.9926 0070203 201.9273 312.4007 14.32595231876326"
      },
      "geometry": {
        "type": "Point",
        "coordinates": [
          -164.35713061841787,
          37.94740541660578
        ]
      }
    }
  ]
}